{"type": "FeatureCollection", "features": [ {"type": "Feature", "properties": {"norad_id": 41019, "name": "GPS BIIF-11 (PRN 10)", "group": "gnss", "lat": -10.176513523130248, "lon": 31.55370080277518, "alt_km": 20319.80158089182, "timestamp": "2025-12-05T19:30:25.808138+00:00", "meta": {"OBJECT_NAME": "GPS BIIF-11 (PRN 10)", "OBJECT_ID": "2015-062A", "EPOCH": "2025-12-03T20:03:13.853664", "MEAN_MOTION": 2.0056693, "ECCENTRICITY": 0.0110571, "INCLINATION": 56.8259, "RA_OF_ASC_NODE": 38.3468, "ARG_OF_PERICENTER": 229.69, "MEAN_ANOMALY": 129.3913, "EPHEMERIS_TYPE": 0, "CLASSIFICATION_TYPE": "U", "NORAD_CAT_ID": 41019, "ELEMENT_SET_NO": 999, "REV_AT_EPOCH": 7391, "BSTAR": 0, "MEAN_MOTION_DOT": -6.5e-07, "MEAN_MOTION_DDOT": 0}, "tle": {"line1": "1 41019U 15062A   25337.83557701 -.00000065  00000+0  00000+0 0  9995", "line2": "2 41019  56.8259  38.3468 0110571 229.6900 129.3913  2.00566930 73916"}}, "geometry": {"type": "Point", "coordinates": [31.55370080277518, -10.176513523130248]}}, {"type": "Feature", "properties": {"norad_id": 41028, "name": "GSAT-15 (GAGAN/PRN 139)", "group": "gnss", "lat": 0.022693983508956905, "lon": 100.93401250249903, "alt_km": 35795.165976230266, "timestamp": "2025-12-05T19:30:25.808152+00:00", "meta": {"OBJECT_NAME": "GSAT-15 (GAGAN/PRN 139)", "OBJECT_ID": "2015-065A", "EPOCH": "2025-12-05T03:18:38.681280", "MEAN_MOTION": 1.00271518, "ECCENTRICITY": 0.00030143, "INCLINATION": 0.0368, "RA_OF_ASC_NODE": 94.7348, "ARG_OF_PERICENTER": 140.4998, "MEAN_ANOMALY": 342.1285, "EPHEMERIS_TYPE": 0, "CLASSIFICATION_TYPE": "U", "NORAD_CAT_ID": 41028, "ELEMENT_SET_NO": 999, "REV_AT_EPOCH": 3685, "BSTAR": 0, "MEAN_MOTION_DOT": -2.46e-06, "MEAN_MOTION_DDOT": 0}, "tle": {"line1": "1 41028U 15065A   25339.13794770 -.00000246  00000+0  00000+0 0  9993", "line2": "2 41028   0.0368  94.7348 0003014 140.4998 342.1285  1.00271518 36854"}}, "geometry": {"type": "Point", "coordinates": [100.93401250249903, 0.022693983508956905]}}, {"type": "Feature", "properties": {"norad_id": 41174, "name": "GSAT0209 (GALILEO 12)", "group": "gnss", "lat": -26.57845204517113, "lon": -53.501132454297355, "alt_km": 23231.30695069999, "timestamp": "2025-12-05T19:30:25.808164+00:00", "meta": {"OBJECT_NAME": "GSAT0209 (GALILEO 12)", "OBJECT_ID": "2015-079A", "EPOCH": "2025-12-01T22:43:10.411392", "MEAN_MOTION": 1.70474306, "ECCENTRICITY": 0.0002352, "INCLINATION": 55.7062, "RA_OF_ASC_NODE": 106.6773, "ARG_OF_PERICENTER": 357.4206, "MEAN_ANOMALY": 2.5431, "EPHEMERIS_TYPE": 0, "CLASSIFICATION_TYPE": "U", "NORAD_CAT_ID": 41174, "ELEMENT_SET_NO": 999, "REV_AT_EPOCH": 6141, "BSTAR": 0, "MEAN_MOTION_DOT": 3.5e-07, "MEAN_MOTION_DDOT": 0}, "tle": {"line1": "1 41174U 15079A   25335.94664828  .00000035  00000+0  00000+0 0  9990", "line2": "2 41174  55.7062 106.6773 0002352 357.4206   2.5431  1.70474306 61412"}}, "geometry": {"type": "Point", "coordinates": [-53.501132454297355, -26.57845204517113]}}, {"type": "Feature", "properties": {"norad_id": 41175, "name": "GSAT0208 (GALILEO 11)", "group": "gnss", "lat": 53.82417683352541, "lon": 175.37422479534186, "alt_km": 23213.81905411429, "timestamp": "2025-12-05T19:30:25.808219+00:00", "meta": {"OBJECT_NAME": "GSAT0208 (GALILEO 11)", "OBJECT_ID": "2015-079B", "EPOCH": "2025-12-03T08:09:32.138784", "MEAN_MOTION": 1.70474152, "ECCENTRICITY": 0.00019072, "INCLINATION": 55.7055, "RA_OF_ASC_NODE": 106.6362, "ARG_OF_PERICENTER": 9.6551, "MEAN_ANOMALY": 350.3047, "EPHEMERIS_TYPE": 0, "CLASSIFICATION_TYPE": "U", "NORAD_CAT_ID": 41175, "ELEMENT_SET_NO": 999, "REV_AT_EPOCH": 6185, "BSTAR": 0, "MEAN_MOTION_DOT": 2.2e-07, "MEAN_MOTION_DDOT": 0}, "tle": {"line1": "1 41175U 15079B   25337.33995531  .00000022  00000+0  00000+0 0  9990", "line2": "2 41175  55.7055 106.6362 0001907   9.6551 350.3047  1.70474152 61857"}}, "geometry": {"type": "Point", "coordinates": [175.37422479534186, 53.82417683352541]}}, {"type": "Feature", "properties": {"norad_id": 41241, "name": "IRNSS-1E", "group": "gnss", "lat": 26.88372180205991, "lon": 114.30937327126057, "alt_km": 35841.46608001799, "timestamp": "2025-12-05T19:30:25.808234+00:00", "meta": {"OBJECT_NAME": "IRNSS-1E", "OBJECT_ID": "2016-003A", "EPOCH": "2025-12-04T15:58:06.723840", "MEAN_MOTION": 1.00277274, "ECCENTRICITY": 0.00219087, "INCLINATION": 32.808, "RA_OF_ASC_NODE": 62.5711, "ARG_OF_PERICENTER": 186.7254, "MEAN_ANOMALY": 175.6944, "EPHEMERIS_TYPE": 0, "CLASSIFICATION_TYPE": "U", "NORAD_CAT_ID": 41241, "ELEMENT_SET_NO": 999, "REV_AT_EPOCH": 3613, "BSTAR": 0, "MEAN_MOTION_DOT": -3.12e-06, "MEAN_MOTION_DDOT": 0}, "tle": {"line1": "1 41241U 16003A   25338.66535560 -.00000312  00000+0  00000+0 0  9994", "line2": "2 41241  32.8080  62.5711 0021908 186.7254 175.6944  1.00277274 36139"}}, "geometry": {"type": "Point", "coordinates": [114.30937327126057, 26.88372180205991]}}, {"type": "Feature", "properties": {"norad_id": 41328, "name": "GPS BIIF-12 (PRN 32)", "group": "gnss", "lat": -51.52234804825312, "lon": 36.949518001162076, "alt_km": 20014.064656991486, "timestamp": "2025-12-05T19:30:25.808246+00:00", "meta": {"OBJECT_NAME": "GPS BIIF-12 (PRN 32)", "OBJECT_ID": "2016-007A", "EPOCH": "2025-12-03T22:01:44.177088", "MEAN_MOTION": 2.00561076, "ECCENTRICITY": 0.0091739, "INCLINATION": 55.4011, "RA_OF_ASC_NODE": 97.2072, "ARG_OF_PERICENTER": 243.359, "MEAN_ANOMALY": 115.6713, "EPHEMERIS_TYPE": 0, "CLASSIFICATION_TYPE": "U", "NORAD_CAT_ID": 41328, "ELEMENT_SET_NO": 999, "REV_AT_EPOCH": 7192, "BSTAR": 0, "MEAN_MOTION_DOT": -7e-08, "MEAN_MOTION_DDOT": 0}, "tle": {"line1": "1 41328U 16007A   25337.91787242 -.00000007  00000+0  00000+0 0  9998", "line2": "2 41328  55.4011  97.2072 0091739 243.3590 115.6713  2.00561076 71928"}}, "geometry": {"type": "Point", "coordinates": [36.949518001162076, -51.52234804825312]}}, {"type": "Feature", "properties": {"norad_id": 41330, "name": "COSMOS 2514 (751)", "group": "gnss", "lat": -61.13325990612358, "lon": -163.11519220556403, "alt_km": 19110.37014822249, "timestamp": "2025-12-05T19:30:25.808258+00:00", "meta": {"OBJECT_NAME": "COSMOS 2514 (751)", "OBJECT_ID": "2016-008A", "EPOCH": "2025-12-05T00:16:21.718272", "MEAN_MOTION": 2.13102448, "ECCENTRICITY": 0.00123991, "INCLINATION": 65.1382, "RA_OF_ASC_NODE": 319.6687, "ARG_OF_PERICENTER": 219.9384, "MEAN_ANOMALY": 139.9663, "EPHEMERIS_TYPE": 0, "CLASSIFICATION_TYPE": "U", "NORAD_CAT_ID": 41330, "ELEMENT_SET_NO": 999, "REV_AT_EPOCH": 7648, "BSTAR": 0, "MEAN_MOTION_DOT": -4.7e-07, "MEAN_MOTION_DDOT": 0}, "tle": {"line1": "1 41330U 16008A   25339.01136248 -.00000047  00000+0  00000+0 0  9993", "line2": "2 41330  65.1382 319.6687 0012399 219.9384 139.9663  2.13102448 76485"}}, "geometry": {"type": "Point", "coordinates": [-163.11519220556403, -61.13325990612358]}}, {"type": "Feature", "properties": {"norad_id": 41384, "name": "IRNSS-1F", "group": "gnss", "lat": -4.243757218306584, "lon": 40.14988754726418, "alt_km": 35833.413627655966, "timestamp": "2025-12-05T19:30:25.808269+00:00", "meta": {"OBJECT_NAME": "IRNSS-1F", "OBJECT_ID": "2016-015A", "EPOCH": "2025-12-04T13:52:48.727200", "MEAN_MOTION": 1.00268262, "ECCENTRICITY": 0.0022409, "INCLINATION": 4.8599, "RA_OF_ASC_NODE": 101.5018, "ARG_OF_PERICENTER": 179.6667, "MEAN_ANOMALY": 33.0691, "EPHEMERIS_TYPE": 0, "CLASSIFICATION_TYPE": "U", "NORAD_CAT_ID": 41384, "ELEMENT_SET_NO": 999, "REV_AT_EPOCH": 3571, "BSTAR": 0, "MEAN_MOTION_DOT": 1.71e-06, "MEAN_MOTION_DDOT": 0}, "tle": {"line1": "1 41384U 16015A   25338.57834175  .00000171  00000+0  00000+0 0  9991", "line2": "2 41384   4.8599 101.5018 0022409 179.6667  33.0691  1.00268262 35717"}}, "geometry": {"type": "Point", "coordinates": [40.14988754726418, -4.243757218306584]}}, {"type": "Feature", "properties": {"norad_id": 41434, "name": "BEIDOU-2 IGSO-6 (C13)", "group": "gnss", "lat": 47.943097255611164, "lon": 79.83584257618973, "alt_km": 36033.61804745597, "timestamp": "2025-12-05T19:30:25.808281+00:00", "meta": {"OBJECT_NAME": "BEIDOU-2 IGSO-6 (C13)", "OBJECT_ID": "2016-021A", "EPOCH": "2025-12-01T15:57:35.287200", "MEAN_MOTION": 1.00256562, "ECCENTRICITY": 0.00591323, "INCLINATION": 59.9483, "RA_OF_ASC_NODE": 40.0119, "ARG_OF_PERICENTER": 231.2834, "MEAN_ANOMALY": 130.8807, "EPHEMERIS_TYPE": 0, "CLASSIFICATION_TYPE": "U", "NORAD_CAT_ID": 41434, "ELEMENT_SET_NO": 999, "REV_AT_EPOCH": 3550, "BSTAR": 0, "MEAN_MOTION_DOT": -1.55e-06, "MEAN_MOTION_DDOT": 0}, "tle": {"line1": "1 41434U 16021A   25335.66499175 -.00000155  00000+0  00000+0 0  9991", "line2": "2 41434  59.9483  40.0119 0059132 231.2834 130.8807  1.00256562 35501"}}, "geometry": {"type": "Point", "coordinates": [79.83584257618973, 47.943097255611164]}}, {"type": "Feature", "properties": {"norad_id": 41469, "name": "IRNSS-1G", "group": "gnss", "lat": 2.6951711585549893, "lon": 136.90333388803705, "alt_km": 35780.40474548504, "timestamp": "2025-12-05T19:30:25.808296+00:00", "meta": {"OBJECT_NAME": "IRNSS-1G", "OBJECT_ID": "2016-027A", "EPOCH": "2025-12-05T05:45:04.490784", "MEAN_MOTION": 1.0025287, "ECCENTRICITY": 0.00046618, "INCLINATION": 4.7142, "RA_OF_ASC_NODE": 102.2925, "ARG_OF_PERICENTER": 337.5739, "MEAN_ANOMALY": 210.2259, "EPHEMERIS_TYPE": 0, "CLASSIFICATION_TYPE": "U", "NORAD_CAT_ID": 41469, "ELEMENT_SET_NO": 999, "REV_AT_EPOCH": 3523, "BSTAR": 0, "MEAN_MOTION_DOT": -3.26e-06, "MEAN_MOTION_DDOT": 0}, "tle": {"line1": "1 41469U 16027A   25339.23963531 -.00000326  00000+0  00000+0 0  9994", "line2": "2 41469   4.7142 102.2925 0004661 337.5739 210.2259  1.00252870 35238"}}, "geometry": {"type": "Point", "coordinates": [136.90333388803705, 2.6951711585549893]}}]}